{
"type": "FeatureCollection",
"name": "shimamoto_boundary",
"crs": { "type": "name", "properties": { "name": "urn:ogc:def:crs:OGC:1.3:CRS84" } },
"features": [
{ "type": "Feature", "properties": { "name": "島本町(N03行政界+1kmバッファ)" }, "geometry": { "type": "Polygon", "coordinates": [ [ [ 135.618988910981244, 34.921526966507002 ], [ 135.618881901487129, 34.921659794736541 ], [ 135.618343057269414, 34.922514778775472 ], [ 135.61791818906994, 34.92341228394946 ], [ 135.617612163675062, 34.924342037765506 ], [ 135.617428488010887, 34.925293398250226 ], [ 135.617406519035285, 34.925466460625572 ], [ 135.617347494771536, 34.926343046482081 ], [ 135.617392407761969, 34.927220199556409 ], [ 135.617540834276753, 34.928089579946281 ], [ 135.617791366262281, 34.928942921396931 ], [ 135.618141624609848, 34.929772109914254 ], [ 135.618145436485776, 34.929778913066563 ], [ 135.618084872555045, 34.930005613513138 ], [ 135.618063185355368, 34.930107000360529 ], [ 135.618043672051897, 34.930231058313062 ], [ 135.617706103815891, 34.930962082617462 ], [ 135.617419818327278, 34.931839769516365 ], [ 135.617242420689081, 34.932736752621693 ], [ 135.617175721789863, 34.933643893782026 ], [ 135.617220404836729, 34.934551951052121 ], [ 135.617376018245267, 34.935451672850796 ], [ 135.617640980091977, 34.936333892229086 ], [ 135.618012594090288, 34.937189620288137 ], [ 135.618487076932837, 34.938010137793661 ], [ 135.61871996209868, 34.938326180223271 ], [ 135.618965363157912, 34.938747477502858 ], [ 135.619110354882963, 34.938962209816339 ], [ 135.619622571830178, 34.939646890639366 ], [ 135.619760332714122, 34.939813847383235 ], [ 135.620008185888082, 34.940101910860854 ], [ 135.620232624516319, 34.940352207681052 ], [ 135.620884181041617, 34.941011298123122 ], [ 135.621608310290725, 34.941616861472511 ], [ 135.622398560565557, 34.942163501316031 ], [ 135.623247890508907, 34.942646346262798 ], [ 135.624148731864096, 34.94306109338698 ], [ 135.624279300388736, 34.943114710023146 ], [ 135.62524632907477, 34.943464849538763 ], [ 135.626249884299853, 34.943736506393712 ], [ 135.627280596402386, 34.94392714438434 ], [ 135.628328841963651, 34.944034983752843 ], [ 135.628783522881662, 34.944045333288202 ], [ 135.628969052733538, 34.944072710085592 ], [ 135.629962939880016, 34.944143307718356 ], [ 135.630960504262191, 34.944139017508498 ], [ 135.631953440110124, 34.944059875335554 ], [ 135.632054838658348, 34.944047927423476 ], [ 135.633129499354027, 34.943875701453827 ], [ 135.633606871047078, 34.943757373181619 ], [ 135.634608919436289, 34.943629957454249 ], [ 135.635684492064598, 34.943399167271657 ], [ 135.635992301574674, 34.943319157308444 ], [ 135.63600653543952, 34.943315448629008 ], [ 135.636111823832607, 34.943287950209616 ], [ 135.637329302116598, 34.942902774677925 ], [ 135.638482409017683, 34.942400961579295 ], [ 135.638626473562937, 34.942328902904613 ], [ 135.638635376125251, 34.942324464683935 ], [ 135.639403952586207, 34.941903810694079 ], [ 135.640126705073953, 34.941431282432774 ], [ 135.640486980902864, 34.94117459496114 ], [ 135.640663106288201, 34.941049100335761 ], [ 135.640683892480894, 34.941034251801661 ], [ 135.640717195202058, 34.941010401573784 ], [ 135.640879516450354, 34.940902525730131 ], [ 135.641002083813191, 34.940884055464238 ], [ 135.642089632144632, 34.940621983487034 ], [ 135.643138391888584, 34.940268622998715 ], [ 135.643236281884327, 34.940225412523766 ], [ 135.643341456137563, 34.940199690530882 ], [ 135.644842111067447, 34.939731509451072 ], [ 135.645153806262869, 34.939612045292897 ], [ 135.645826956247333, 34.93932490856983 ], [ 135.646368041406078, 34.939185996329329 ], [ 135.647438450391633, 34.938803964859581 ], [ 135.647641523940024, 34.938720621899002 ], [ 135.648547168661253, 34.938303632721635 ], [ 135.649400724353598, 34.937817820895667 ], [ 135.650194503035635, 34.937267562861464 ], [ 135.650921355646858, 34.936657815489802 ], [ 135.651574736443251, 34.935994071395143 ], [ 135.652148761937951, 34.935282309424622 ], [ 135.652369567656876, 34.934978122829207 ], [ 135.652826969468208, 34.93427513913182 ], [ 135.652848807607626, 34.934259791142203 ], [ 135.652945590431386, 34.934224651795169 ], [ 135.65389698317577, 34.933832636881348 ], [ 135.654797597110615, 34.933366323532468 ], [ 135.655638903730875, 34.932830128240617 ], [ 135.656412936689037, 34.932229129215813 ], [ 135.656737097842864, 34.931951684290816 ], [ 135.657089736411166, 34.93165586723277 ], [ 135.65770864703822, 34.931090767160498 ], [ 135.658267392709718, 34.930484639871587 ], [ 135.658448493241622, 34.930269906318934 ], [ 135.658896984011619, 34.929692366630363 ], [ 135.659290811611299, 34.929088396363049 ], [ 135.65936996837641, 34.928955057734186 ], [ 135.659443479693039, 34.928831197408613 ], [ 135.659623334942438, 34.928489613170242 ], [ 135.659729314695113, 34.928342974321524 ], [ 135.660200325884233, 34.927617819326834 ], [ 135.660475234841641, 34.927082056530601 ], [ 135.66089253762226, 34.926301058467942 ], [ 135.660979453982378, 34.926104106441272 ], [ 135.661310147472165, 34.92521383820921 ], [ 135.661527445281422, 34.924300203584622 ], [ 135.661573390962474, 34.923880818903946 ], [ 135.661595939439792, 34.923860098044784 ], [ 135.662266613547928, 34.923179890851735 ], [ 135.662853820806163, 34.922449206135937 ], [ 135.663352000830685, 34.921674965931913 ], [ 135.663756437023409, 34.920864504663328 ], [ 135.664063301169136, 34.92002549963528 ], [ 135.66409939516646, 34.919906046364858 ], [ 135.664312376012219, 34.919009116737641 ], [ 135.664413864662635, 34.918099023762402 ], [ 135.664435750800493, 34.917657638267471 ], [ 135.66442948610387, 34.916812909684261 ], [ 135.664400269565277, 34.916359581828921 ], [ 135.664352446176764, 34.915870125077433 ], [ 135.664330248541006, 34.915700821605867 ], [ 135.664294715751964, 34.915429573100191 ], [ 135.664090867298597, 34.914417857551094 ], [ 135.664007051901052, 34.914176339058422 ], [ 135.664292995961688, 34.914157838310963 ], [ 135.665145107289788, 34.914074874439926 ], [ 135.665420129598147, 34.914039030891978 ], [ 135.666492659286519, 34.913853420469877 ], [ 135.667537225594913, 34.913580261974452 ], [ 135.668503154051706, 34.913236594943683 ], [ 135.669414798751632, 34.913091294009504 ], [ 135.670451823063587, 34.912836197264269 ], [ 135.67098889887788, 34.912654723550517 ], [ 135.671172503513304, 34.912626037946474 ], [ 135.67211089661069, 34.912406498028162 ], [ 135.672262854884053, 34.912364825916718 ], [ 135.673482227551432, 34.911961866792296 ], [ 135.674634080212883, 34.911441285655094 ], [ 135.674887425245345, 34.911309876779598 ], [ 135.67569794235439, 34.910846087523247 ], [ 135.676324356586065, 34.910413698306293 ], [ 135.676549801742482, 34.910322835260338 ], [ 135.676803148986579, 34.910203661096659 ], [ 135.678079807385672, 34.909500784640983 ], [ 135.678304261962182, 34.90935743892026 ], [ 135.678450090065922, 34.909262661491475 ], [ 135.678906608104882, 34.908960736140514 ], [ 135.678960015867034, 34.90892814771631 ], [ 135.679533907401947, 34.908532902724787 ], [ 135.679561592445822, 34.908515412347832 ], [ 135.68023963436687, 34.908050055938439 ], [ 135.680641583909164, 34.907725492467534 ], [ 135.681326973316544, 34.90736598867683 ], [ 135.681455343521066, 34.907289314638554 ], [ 135.681577922499343, 34.907216078362381 ], [ 135.682517902641024, 34.906586104771669 ], [ 135.683367433644293, 34.905874273975712 ], [ 135.68371873933873, 34.905505938137502 ], [ 135.683949274415056, 34.905286309536002 ], [ 135.684428023539738, 34.904796639826593 ], [ 135.684514956989204, 34.904701074889608 ], [ 135.685118237166449, 34.903964815656153 ], [ 135.685630502830008, 34.903183162426444 ], [ 135.686046769459978, 34.902363725198434 ], [ 135.686311596951413, 34.901652498564623 ], [ 135.686593131206109, 34.901107782290197 ], [ 135.686926090686853, 34.900218193095256 ], [ 135.687145769416531, 34.899305033703037 ], [ 135.687160479429252, 34.89922142004535 ], [ 135.687262590969482, 34.898331992039218 ], [ 135.687262174279255, 34.898262832219153 ], [ 135.687297963964227, 34.89819111538403 ], [ 135.687538002205486, 34.897529498048584 ], [ 135.687800329684251, 34.897136162065863 ], [ 135.688064531047473, 34.896713995052131 ], [ 135.688165913733314, 34.89654093385888 ], [ 135.688422951968164, 34.896067838365965 ], [ 135.688560419103169, 34.895793936701814 ], [ 135.688775004696339, 34.895321898720994 ], [ 135.689127634847267, 34.895119890094456 ], [ 135.689130410936457, 34.895118222941875 ], [ 135.689959303750811, 34.89456754177322 ], [ 135.690719200890555, 34.893953002598721 ], [ 135.691402887427444, 34.893280441722816 ], [ 135.692003872678725, 34.892556246298057 ], [ 135.692516451803954, 34.891787293631197 ], [ 135.692935759917901, 34.89098088583939 ], [ 135.693257818206718, 34.89014468047867 ], [ 135.693479571613295, 34.889286617804927 ], [ 135.693598917737063, 34.888414845359108 ], [ 135.693614726677765, 34.887537640593649 ], [ 135.693526851639831, 34.886663332275319 ], [ 135.693336130200663, 34.885800221410939 ], [ 135.69304437623623, 34.884956502446251 ], [ 135.69265436258479, 34.884140185486096 ], [ 135.69216979461757, 34.883359020272813 ], [ 135.692067008651549, 34.883211524894982 ], [ 135.691942520711763, 34.883037440028069 ], [ 135.691699075535922, 34.882705573203708 ], [ 135.691451808103579, 34.88227002990871 ], [ 135.691391554279818, 34.88216010845801 ], [ 135.691349131205669, 34.882081674718883 ], [ 135.691258031178705, 34.881813192567627 ], [ 135.6912235772798, 34.881697450179722 ], [ 135.691098337516763, 34.881261172648024 ], [ 135.690818988008743, 34.88028805746886 ], [ 135.690611837303692, 34.879480281898402 ], [ 135.690505993466218, 34.879107008296423 ], [ 135.690357611436553, 34.878629799521008 ], [ 135.690240473515559, 34.878282189050402 ], [ 135.68987869078623, 34.877286397801328 ], [ 135.689698160839527, 34.876833488980523 ], [ 135.689470052077013, 34.876308511523391 ], [ 135.689380761142075, 34.876110371405971 ], [ 135.688910104770912, 34.875102362882075 ], [ 135.688859849519758, 34.874996720175155 ], [ 135.688570367475251, 34.874399293629615 ], [ 135.688429799943208, 34.874109068901959 ], [ 135.688299095005874, 34.873850925728306 ], [ 135.68795875150235, 34.873207065309288 ], [ 135.687921160754797, 34.873136771092959 ], [ 135.687501648537193, 34.872361260716687 ], [ 135.687270719373601, 34.871961133461745 ], [ 135.686948459737778, 34.871436440829996 ], [ 135.686909222315506, 34.871373175938075 ], [ 135.686677520581441, 34.871003196187743 ], [ 135.68656522435225, 34.870828608741192 ], [ 135.686477912724342, 34.87069639121944 ], [ 135.68625362745496, 34.870356820965682 ], [ 135.686190725942964, 34.87026292308957 ], [ 135.685785405134141, 34.869666290420824 ], [ 135.68528139360464, 34.868995183298289 ], [ 135.684954266702107, 34.868599473753726 ], [ 135.684885902998616, 34.868510928756933 ], [ 135.684854108370843, 34.868469587233456 ], [ 135.684401343244559, 34.867925965674928 ], [ 135.684138463987637, 34.867633861957366 ], [ 135.683950507052543, 34.86741250103146 ], [ 135.68311880918597, 34.866433062263269 ], [ 135.682899129898118, 34.866183558894257 ], [ 135.682207231551189, 34.865425368009106 ], [ 135.681549636057781, 34.864689925786436 ], [ 135.680851349391332, 34.863986307650386 ], [ 135.680070554017647, 34.863344306106292 ], [ 135.679215208932618, 34.86277046409441 ], [ 135.678294032346969, 34.862270629825503 ], [ 135.67731641285539, 34.861849897223067 ], [ 135.676292313800104, 34.861512554049142 ], [ 135.675232171800531, 34.861262038240454 ], [ 135.674146790480052, 34.861100902898251 ], [ 135.673047230468029, 34.861030790287025 ], [ 135.671944696793616, 34.861052415106549 ], [ 135.67085042481267, 34.86116555720691 ], [ 135.669775565825375, 34.861369063820874 ], [ 135.668731073543512, 34.861660861291419 ], [ 135.667727592560396, 34.862037976175692 ], [ 135.667531634146115, 34.862121711309484 ], [ 135.666970273925813, 34.862339712948476 ], [ 135.666793831144275, 34.862409833181438 ], [ 135.666236359596013, 34.862636475757462 ], [ 135.666025094991625, 34.862724725234131 ], [ 135.665330417028173, 34.863022747747095 ], [ 135.664963391194846, 34.863187841386122 ], [ 135.664485148070156, 34.863319579262779 ], [ 135.66448059579119, 34.863320971730303 ], [ 135.664225507213189, 34.863289507064053 ], [ 135.663134009008218, 34.863245863428922 ], [ 135.662042680657038, 34.86329231723186 ], [ 135.66096244057843, 34.86342840392669 ], [ 135.660160300465435, 34.863598450474427 ], [ 135.659356718702583, 34.86342726263981 ], [ 135.658307746822089, 34.863291554197495 ], [ 135.657247746248203, 34.863240421586411 ], [ 135.656186729304721, 34.863274347979186 ], [ 135.65594064655113, 34.863292118491295 ], [ 135.654960173611613, 34.863399972929493 ], [ 135.654424300486653, 34.863500252251526 ], [ 135.653780336229318, 34.863535480769023 ], [ 135.652659056319891, 34.86369457293128 ], [ 135.651563928469642, 34.863948923966454 ], [ 135.650506830104405, 34.86429577555726 ], [ 135.649499226636351, 34.864731366116828 ], [ 135.648552047197057, 34.865250971540796 ], [ 135.648240668491297, 34.865441792269294 ], [ 135.647415801528069, 34.866000901837261 ], [ 135.646661104706624, 34.866623722798131 ], [ 135.645983791592329, 34.867304303643678 ], [ 135.645390336766894, 34.868036140737651 ], [ 135.645216698058107, 34.868274741501331 ], [ 135.64469028426825, 34.869090204137699 ], [ 135.644268003330808, 34.869945826031511 ], [ 135.643954302645966, 34.870832602804448 ], [ 135.643923993882481, 34.870969057849315 ], [ 135.643711885208518, 34.87117768359937 ], [ 135.643082513053628, 34.87194480846118 ], [ 135.642552065127745, 34.872761151799658 ], [ 135.642472958745117, 34.872899558148134 ], [ 135.642156110871781, 34.873011532820421 ], [ 135.641236789611384, 34.873426490359748 ], [ 135.640369941109952, 34.873912139639216 ], [ 135.639563543779872, 34.874464011506937 ], [ 135.639476605003154, 34.874529564211159 ], [ 135.639436358566797, 34.874562868246279 ], [ 135.638761111839528, 34.874917474966018 ], [ 135.637935578475265, 34.875449054900571 ], [ 135.637175611488374, 34.87604335062565 ], [ 135.636488199066918, 34.876694898699839 ], [ 135.635879662837567, 34.87739770918283 ], [ 135.635355599712199, 34.878145320669091 ], [ 135.63526349833171, 34.878311730237876 ], [ 135.635145437813406, 34.87849853378605 ], [ 135.634776286266401, 34.879143806447566 ], [ 135.634470280178533, 34.879811137536031 ], [ 135.634274944231748, 34.880294178210519 ], [ 135.633933453908099, 34.881347368392504 ], [ 135.633899736856137, 34.881544605135858 ], [ 135.633491251870055, 34.881802031740165 ], [ 135.632718782082833, 34.882394432698632 ], [ 135.632567922792333, 34.882534835722076 ], [ 135.632398804213125, 34.882579104203202 ], [ 135.631546017042922, 34.882869651061014 ], [ 135.631343255498592, 34.88294714753026 ], [ 135.630442658243084, 34.883334241203279 ], [ 135.629589565121336, 34.88378857235471 ], [ 135.629437625364687, 34.883878005095625 ], [ 135.628589700252405, 34.88443130135213 ], [ 135.627812301077881, 34.885050961338344 ], [ 135.627730056546852, 34.885123345150774 ], [ 135.627382253039173, 34.885428493336534 ], [ 135.626811199592908, 34.885971371767667 ], [ 135.626739003924541, 34.886045808905784 ], [ 135.626579699489611, 34.886210063645869 ], [ 135.626428446183809, 34.886369663800032 ], [ 135.626201354737077, 34.886614922073321 ], [ 135.626180878825267, 34.88663572040555 ], [ 135.625615567645099, 34.887263829681629 ], [ 135.625118521777296, 34.887929986801026 ], [ 135.62469349168893, 34.888629167668427 ], [ 135.624343684955392, 34.889356098979952 ], [ 135.62428588696929, 34.889493320002906 ], [ 135.623951775395966, 34.890456504463124 ], [ 135.623749582323711, 34.891444309243617 ], [ 135.623710973291452, 34.892014155480673 ], [ 135.623524672939794, 34.892656678150331 ], [ 135.62348131354841, 34.892859729855111 ], [ 135.623433723558236, 34.893101875953072 ], [ 135.623397302949883, 34.893304658271504 ], [ 135.623353272233544, 34.893578824627269 ], [ 135.623327969612205, 34.893757427751332 ], [ 135.623254275298876, 34.894800335290633 ], [ 135.623254266904524, 34.894863499046217 ], [ 135.623160851910683, 34.895112566894241 ], [ 135.622962632860208, 34.89586240270323 ], [ 135.622842630176137, 34.896623421943907 ], [ 135.62282065644834, 34.896832034600187 ], [ 135.622787142392127, 34.897941953832863 ], [ 135.622794346156297, 34.898103063727426 ], [ 135.622928554854951, 34.899216386358475 ], [ 135.62294169722523, 34.89928298833383 ], [ 135.622799542508659, 34.899907362780247 ], [ 135.622740142133352, 34.900254152268232 ], [ 135.622234302490597, 34.90065888539074 ], [ 135.62211874796381, 34.900760544942891 ], [ 135.621445034683092, 34.901412835007243 ], [ 135.620849588606575, 34.902114909690823 ], [ 135.620337798941222, 34.902860417324689 ], [ 135.619914298430928, 34.903642613099649 ], [ 135.619582921372995, 34.90445442006186 ], [ 135.619521226436746, 34.904633308002659 ], [ 135.619244250320122, 34.905661998556504 ], [ 135.6191136049747, 34.906330046058315 ], [ 135.618978704053916, 34.907511438367948 ], [ 135.618972037792844, 34.907708574306476 ], [ 135.618971333936884, 34.907729658965025 ], [ 135.618967213212159, 34.907975892940016 ], [ 135.618967165793293, 34.908332839894882 ], [ 135.618967160548237, 34.908372306335039 ], [ 135.618966919288823, 34.908381361066489 ], [ 135.618958155001678, 34.908562030463123 ], [ 135.618946564742714, 34.908765594193582 ], [ 135.618944088107668, 34.909563269186428 ], [ 135.61902732489682, 34.910357994187798 ], [ 135.619063405108506, 34.910584666096362 ], [ 135.619240157445915, 34.911381828989803 ], [ 135.619133164915525, 34.911577627493088 ], [ 135.618816245373921, 34.912328365379814 ], [ 135.618772896880273, 34.912447803487488 ], [ 135.618470604657745, 34.913512476086886 ], [ 135.618327205223153, 34.914599481515069 ], [ 135.618319977518809, 34.914724761842869 ], [ 135.618317888084789, 34.915541655068566 ], [ 135.618343227586564, 34.915776479131694 ], [ 135.618307131382977, 34.915939413438018 ], [ 135.618190806675699, 34.916603920643958 ], [ 135.618134917520763, 34.91727372020555 ], [ 135.618127667120064, 34.917464271039712 ], [ 135.618172728175495, 34.91861015710289 ], [ 135.61819437726308, 34.918795160443956 ], [ 135.618405600037846, 34.919889480581709 ], [ 135.618449186835278, 34.920050602538325 ], [ 135.618763400304829, 34.92097622836625 ], [ 135.618956320607396, 34.921374711000738 ], [ 135.618988910981244, 34.921526966507002 ] ] ] } }
]
}
